IRIDIUM 36              
1 24967U 97056C   24303.65717321  .00001852  00000+0  61672-3 0  9999
2 24967  86.3923 269.7963 0002512  83.9137 276.2347 14.37161947419103
IRIDIUM 39              
1 25042U 97069D   24303.94921596  .00003065  00000+0  80993-3 0  9996
2 25042  86.3876 309.8610 0018063   3.2364 356.8953 14.48523906415625
IRIDIUM 38              
1 25043U 97069E   24303.62081123  .00001767  00000+0  58209-3 0  9997
2 25043  86.3952 330.1884 0003846 111.8541 248.3066 14.37649416412829
IRIDIUM 42              
1 25077U 97077A   24303.62509285  .00001626  00000+0  55436-3 0  9990
2 25077  86.3968 336.0709 0002636 105.5430 254.6058 14.35920943408109
IRIDIUM 44              
1 25078U 97077B   24303.99128911  .00001991  00000+0  62917-3 0  9991
2 25078  86.3930 318.4537 0004009  78.8593 281.3057 14.39772443410574
IRIDIUM 45              
1 25104U 97082A   24303.66086306  .00036110  00000+0  16990-2 0  9992
2 25104  86.3675 158.7934 0145538 107.6230 254.0963 15.10394590417100
IRIDIUM 24              
1 25105U 97082B   24303.91095438  .00001841  00000+0  55948-3 0  9997
2 25105  86.3964 177.8823 0013201 113.4890 246.7699 14.41609183410038
IRIDIUM 51              
1 25262U 98018A   24303.89946143  .00054335  00000+0  20028-2 0  9992
2 25262  86.3953 168.0727 0126902  44.0345 317.0920 15.20255145411811
